{
    "links": {
        "self": "http://www.neowsapp.com/rest/v1/neo/3797759?api_key=iIulBulltgU6a56xZRHN4H3l9WmuAYTsLGpBGhQ2"
    },
    "id": "3797759",
    "neo_reference_id": "3797759",
    "name": "(2017 YK14)",
    "designation": "2017 YK14",
    "nasa_jpl_url": "http://ssd.jpl.nasa.gov/sbdb.cgi?sstr=3797759",
    "absolute_magnitude_h": 28.542,
    "estimated_diameter": {
        "kilometers": {
            "estimated_diameter_min": 0.0052018159,
            "estimated_diameter_max": 0.0116316139
        },
        "meters": {
            "estimated_diameter_min": 5.2018158857,
            "estimated_diameter_max": 11.6316139268
        },
        "miles": {
            "estimated_diameter_min": 0.0032322575,
            "estimated_diameter_max": 0.0072275476
        },
        "feet": {
            "estimated_diameter_min": 17.0663256303,
            "estimated_diameter_max": 38.1614642355
        }
    },
    "is_potentially_hazardous_asteroid": false,
    "close_approach_data": [
        {
            "close_approach_date": "2017-12-24",
            "close_approach_date_full": "2017-Dec-24 05:53",
            "epoch_date_close_approach": 1514094780000,
            "relative_velocity": {
                "kilometers_per_second": "3.4304139407",
                "kilometers_per_hour": "12349.4901865237",
                "miles_per_hour": "7673.4929439541"
            },
            "miss_distance": {
                "astronomical": "0.0067396811",
                "lunar": "2.6217359479",
                "kilometers": "1008241.937039257",
                "miles": "626492.4888334666"
            },
            "orbiting_body": "Moon"
        },
        {
            "close_approach_date": "2017-12-24",
            "close_approach_date_full": "2017-Dec-24 14:07",
            "epoch_date_close_approach": 1514124420000,
            "relative_velocity": {
                "kilometers_per_second": "3.010489526",
                "kilometers_per_hour": "10837.7622937241",
                "miles_per_hour": "6734.1640207865"
            },
            "miss_distance": {
                "astronomical": "0.0048924907",
                "lunar": "1.9031788823",
                "kilometers": "731906.187714809",
                "miles": "454785.4163660042"
            },
            "orbiting_body": "Earth"
        }
    ],
    "orbital_data": {
        "orbit_id": "3",
        "orbit_determination_date": "2018-01-20 08:31:23",
        "first_observation_date": "2017-12-25",
        "last_observation_date": "2017-12-25",
        "data_arc_in_days": null,
        "observations_used": 11,
        "orbit_uncertainty": "9",
        "minimum_orbit_intersection": ".00451326",
        "jupiter_tisserand_invariant": "5.188",
        "epoch_osculation": "2458112.5",
        "eccentricity": ".1955958270325236",
        "semi_major_axis": "1.228231815322673",
        "inclination": "3.088402150243151",
        "ascending_node_longitude": "274.200593570883",
        "orbital_period": "497.1860573685569",
        "perihelion_distance": ".9879947976169772",
        "perihelion_argument": "180.855153399864",
        "aphelion_distance": "1.468468833028369",
        "perihelion_time": "2458114.160141808919",
        "mean_anomaly": "358.7979328013058",
        "mean_motion": ".7240750110841044",
        "equinox": "J2000",
        "orbit_class": {
            "orbit_class_type": "APO",
            "orbit_class_description": "Near-Earth asteroid orbits which cross the Earth’s orbit similar to that of 1862 Apollo",
            "orbit_class_range": "a (semi-major axis) > 1.0 AU; q (perihelion) < 1.017 AU"
        }
    },
    "is_sentry_object": false
}